ONEWEB-0389             
1 50469U 21132A   24245.76866656  .00000084  00000+0  18287-3 0  9990
2 50469  87.9162 136.0163 0002237  71.2372 288.9002 13.17648024132039
ONEWEB-0390             
1 50470U 21132B   24245.69434547  .00000127  00000+0  29390-3 0  9999
2 50470  87.9162 136.0386 0002169  82.1554 277.9824 13.17648161132026
ONEWEB-0391             
1 50471U 21132C   24245.69592833  .00000246  00000+0  60081-3 0  9997
2 50471  87.9174 136.0276 0002163  69.0018 291.1345 13.17649562132023
ONEWEB-0392             
1 50472U 21132D   24245.95285154  .00000022  00000+0  23729-4 0  9993
2 50472  87.9158 135.9656 0002320  67.9042 292.2335 13.17648767132099
ONEWEB-0393             
1 50473U 21132E   24245.92712660  .00000129  00000+0  29830-3 0  9994
2 50473  87.9168 135.9551 0002091  73.6697 286.4664 13.17650566132089
ONEWEB-0394             
1 50474U 21132F   24245.87706550  .00000237  00000+0  56853-3 0  9995
2 50474  87.9076 105.5081 0001876  76.8864 283.2478 13.18684144135496
ONEWEB-0395             
1 50475U 21132G   24245.76149078 -.00000383  00000+0 -11168-2 0  9993
2 50475  87.8988 151.2102 0002244  73.5747 286.5627 13.11414923130074
ONEWEB-0396             
1 50476U 21132H   24245.64312048  .00000128  00000+0  29120-3 0  9993
2 50476  87.9082 105.5556 0001797  74.5868 285.5462 13.18685525135507
ONEWEB-0397             
1 50477U 21132J   24245.88496157  .00000165  00000+0  38657-3 0  9990
2 50477  87.9077 105.5087 0001646  76.1700 283.9615 13.18683093135518
ONEWEB-0398             
1 50478U 21132K   24245.80558921  .00000583  00000+0  16104-2 0  9997
2 50478  87.8984 151.1778 0002243  82.9287 277.2096 13.11416775129974
ONEWEB-0399             
1 50479U 21132L   24245.79199901 -.00000242  00000+0 -71735-3 0  9991
2 50479  87.8986 151.1988 0001840  64.2392 295.8925 13.11418003129964
ONEWEB-0400             
1 50480U 21132M   24245.63679235  .00000074  00000+0  15579-3 0  9994
2 50480  87.9081 105.5587 0001907  85.9707 274.1643 13.18685771135470
ONEWEB-0401             
1 50481U 21132N   24245.90710586  .00000152  00000+0  35165-3 0  9990
2 50481  87.9075 105.5009 0001541  76.3781 283.7523 13.18685875135516
ONEWEB-0402             
1 50482U 21132P   24245.64468338  .00000055  00000+0  10571-3 0  9993
2 50482  87.9077 105.5505 0001069  67.9070 292.2176 13.18682787135509
ONEWEB-0403             
1 50483U 21132Q   24245.89603080  .00000054  00000+0  10294-3 0  9997
2 50483  87.9078 105.5095 0001737  74.0925 286.0398 13.18687175135496
ONEWEB-0404             
1 50484U 21132R   24245.77335773 -.00000549  00000+0 -15843-2 0  9991
2 50484  87.8997 151.1802 0002203  65.8445 294.2913 13.11418507130058
ONEWEB-0405             
1 50485U 21132S   24245.60833571  .00000082  00000+0  17464-3 0  9995
2 50485  87.9080 105.5566 0001435  71.8899 288.2390 13.18686491135850
ONEWEB-0406             
1 50486U 21132T   24245.90079409  .00000134  00000+0  30799-3 0  9995
2 50486  87.9079 105.5114 0002478  79.5742 280.5669 13.18686536135526
ONEWEB-0407             
1 50487U 21132U   24245.89446051  .00000152  00000+0  35369-3 0  9993
2 50487  87.9075 105.5111 0001702  74.8547 285.2773 13.18684697135467
ONEWEB-0409             
1 50488U 21132V   24245.77165397 -.00000541  00000+0 -15622-2 0  9995
2 50488  87.8986 151.1705 0002325  73.8132 286.3252 13.11418789129945
ONEWEB-0412             
1 50489U 21132W   24245.88338715  .00000007  00000+0 -14635-4 0  9995
2 50489  87.9079 105.5165 0001346  70.0375 290.0902 13.18684143135557
ONEWEB-0413             
1 50490U 21132X   24245.88813852  .00000094  00000+0  20543-3 0  9996
2 50490  87.9078 105.5283 0001382  79.7653 280.3634 13.18685184135497
ONEWEB-0414             
1 50491U 21132Y   24245.87389309  .00000117  00000+0  26504-3 0  9990
2 50491  87.9077 105.5066 0001634  71.1118 289.0191 13.18687136135525
ONEWEB-0417             
1 50492U 21132Z   24245.65418877  .00000096  00000+0  21124-3 0  9999
2 50492  87.9083 105.5587 0001983  77.2399 282.8954 13.18684830135476
ONEWEB-0418             
1 50493U 21132AA  24245.89116188  .00000113  00000+0  25474-3 0  9998
2 50493  87.9077 105.5115 0002178  73.6329 286.5043 13.18685406135567
ONEWEB-0419             
1 50494U 21132AB  24244.99829206 -.00015188  00000+0 -38687-1 0  9999
2 50494  87.9136 105.6924 0002916 269.0536  91.0261 13.18568108135362
ONEWEB-0420             
1 50495U 21132AC  24245.64786335  .00000043  00000+0  75245-4 0  9994
2 50495  87.9077 105.5834 0001478  85.9583 274.1718 13.18684580135448
ONEWEB-0421             
1 50496U 21132AD  24245.86916829  .00000130  00000+0  29588-3 0  9997
2 50496  87.9084 105.5108 0001557  69.6559 290.4740 13.18685433135513
ONEWEB-0424             
1 50497U 21132AE  24245.90393537  .00000064  00000+0  13021-3 0  9999
2 50497  87.9077 105.5062 0002231  90.0901 270.0487 13.18684067135541
ONEWEB-0426             
1 50498U 21132AF  24245.86600808  .00000137  00000+0  31415-3 0  9995
2 50498  87.9075 105.5279 0002067  63.6089 296.5256 13.18685955135487
ONEWEB-0427             
1 50499U 21132AG  24245.90235554  .00000030  00000+0  42743-4 0  9992
2 50499  87.9074 105.4991 0002051  77.6141 282.5221 13.18686991135516
ONEWEB-0429             
1 50500U 21132AH  24245.88972068  .00000104  00000+0  23210-3 0  9999
2 50500  87.9079 105.5123 0001626  85.1527 274.9791 13.18685116135482
ONEWEB-0430             
1 50501U 21132AJ  24245.87864281  .00000079  00000+0  16814-3 0  9999
2 50501  87.9080 105.5165 0001954  94.1643 265.9713 13.18684887136810
ONEWEB-0432             
1 50502U 21132AK  24245.91026476  .00000091  00000+0  19861-3 0  9990
2 50502  87.9076 105.5023 0002221  87.4202 272.7184 13.18686435135484
ONEWEB-0440             
1 50503U 21132AL  24245.89761148  .00000159  00000+0  36949-3 0  9991
2 50503  87.9082 105.4957 0001290  71.1930 288.9342 13.18686410135477
ONEWEB-0450             
1 50504U 21132AM  24245.89142595  .00000068  00000+0  13991-3 0  9992
2 50504  87.9077 105.5254 0001613  94.6598 265.4719 13.18684286135503
ONEWEB-0410             
1 51622U 22012A   24245.93829582  .00000083  00000+0  18060-3 0  9994
2 51622  87.9160 135.9617 0002979  51.4642 308.6756 13.17647385127673
ONEWEB-0411             
1 51623U 22012B   24245.85096889  .00000670  00000+0  18828-2 0  9995
2 51623  87.8994 166.2535 0002334  91.8988 268.2407 13.10373193125005
ONEWEB-0415             
1 51624U 22012C   24245.84764802  .00000727  00000+0  20450-2 0  9999
2 51624  87.8990 166.2726 0002197  82.2562 277.8815 13.10373659123726
ONEWEB-0416             
1 51625U 22012D   24245.85926145  .00000484  00000+0  13493-2 0  9990
2 51625  87.8993 166.2697 0001997  73.3996 286.7350 13.10369866123768
ONEWEB-0422             
1 51626U 22012E   24245.94799076  .00000119  00000+0  27261-3 0  9996
2 51626  87.9163 135.9608 0001135  90.4233 269.7029 13.17651223127780
ONEWEB-0423             
1 51627U 22012F   24245.94154141  .00000131  00000+0  30441-3 0  9993
2 51627  87.9164 135.9645 0001763  73.2587 286.8738 13.17649272127677
ONEWEB-0425             
1 51628U 22012G   24245.79285471 -.00000051  00000+0 -18335-3 0  9999
2 51628  87.8991 166.2637 0002002  64.2548 295.8786 13.10368625123758
ONEWEB-0428             
1 51629U 22012H   24245.84930583  .00000730  00000+0  20544-2 0  9993
2 51629  87.8991 166.2691 0001859  83.7555 276.3784 13.10373295123720
ONEWEB-0431             
1 51630U 22012J   24245.81926743 -.00000634  00000+0 -18517-2 0  9997
2 51630  87.8989 166.2669 0002060  95.3393 264.7969 13.10374974123774
ONEWEB-0434             
1 51631U 22012K   24245.79616755 -.00000170  00000+0 -52235-3 0  9995
2 51631  87.8989 166.2916 0001760  75.2928 284.8395 13.10372987123753
ONEWEB-0435             
1 51632U 22012L   24245.80447084 -.00000527  00000+0 -15468-2 0  9997
2 51632  87.8995 166.2813 0001550  82.7599 277.3704 13.10373704123749
ONEWEB-0436             
1 51633U 22012M   24245.93342519  .00002206  00000+0  56466-2 0  9996
2 51633  87.9161 135.9675 0001722  80.2244 279.9082 13.17665259127653
ONEWEB-0438             
1 51634U 22012N   24245.78787911  .00000295  00000+0  81021-3 0  9991
2 51634  87.8988 166.2851 0002015  69.7345 290.3999 13.10369563123778
ONEWEB-0439             
1 51635U 22012P   24245.79119563  .00000107  00000+0  27005-3 0  9999
2 51635  87.8992 166.2700 0001884  76.3226 283.8111 13.10369438123754
ONEWEB-0442             
1 51636U 22012Q   24245.92619428  .00000159  00000+0  37725-3 0  9997
2 51636  87.9165 136.0067 0002535  67.8031 292.3369 13.17651846127648
ONEWEB-0443             
1 51637U 22012R   24245.71696075  .00000108  00000+0  24514-3 0  9994
2 51637  87.9167 136.0569 0001462  71.7552 288.3739 13.17648345127666
ONEWEB-0444             
1 51638U 22012S   24245.47581190  .00000541  00000+0  15140-2 0  9994
2 51638  87.8985 166.3499 0001757  76.4252 283.7071 13.10370311123727
ONEWEB-0445             
1 51639U 22012T   24245.80280421 -.00000483  00000+0 -14204-2 0  9992
2 51639  87.8985 166.2542 0002205  76.2278 283.9095 13.10369605123778
ONEWEB-0446             
1 51640U 22012U   24245.47415615  .00000640  00000+0  17957-2 0  9993
2 51640  87.8988 166.3502 0002235  78.7054 281.4324 13.10371130123710
ONEWEB-0448             
1 51641U 22012V   24245.47913194  .00000407  00000+0  11301-2 0  9997
2 51641  87.8988 166.3497 0001775  75.3598 284.7726 13.10369940123682
ONEWEB-0449             
1 51642U 22012W   24245.48410634  .00000086  00000+0  21137-3 0  9992
2 51642  87.8981 166.3398 0002046  68.5425 291.5921 13.10369474123697
ONEWEB-0451             
1 51643U 22012X   24245.93023753  .00000082  00000+0  17749-3 0  9995
2 51643  87.9156 135.9641 0001765  74.1572 285.9754 13.17651805127637
ONEWEB-0452             
1 51644U 22012Y   24245.92861734  .00000133  00000+0  30871-3 0  9992
2 51644  87.9163 136.0091 0001807  64.7869 295.3450 13.17648086127644
